QIANFAN-81              
1 63167U 25046J   25336.19422419  .00000135  00000+0  18974-3 0  9991
2 63167  88.9755 320.9641 0015569 145.0123 215.2055 13.50998823 46068
QIANFAN-82              
1 63168U 25046K   25336.22806859  .00000089  00000+0  11884-3 0  9991
2 63168  88.9755 321.0044 0013501 151.4625 208.7268 13.50972647 46058
QIANFAN-83              
1 63169U 25046L   25336.19309328  .00000069  00000+0  73734-4 0  9998
2 63169  88.9755 320.8051 0015202 138.8303 221.4005 13.61970728 46169
QIANFAN-84              
1 63170U 25046M   25336.25595903 -.00000021  00000+0 -50632-4 0  9995
2 63170  88.9751 321.1345 0016529 149.5996 210.6117 13.50984744 45981
QIANFAN-85              
1 63171U 25046N   25336.25263517  .00000133  00000+0  18703-3 0  9993
2 63171  88.9754 321.0064 0013890 150.4326 209.7613 13.50972802 46059
QIANFAN-86              
1 63172U 25046P   25336.26096327  .00000110  00000+0  15100-3 0  9991
2 63172  88.9756 320.8674 0011659 153.1559 207.0198 13.50972853 46139
QIANFAN-87              
1 63173U 25046Q   25336.23227890  .00000036  00000+0  36468-4 0  9998
2 63173  88.9752 320.9825 0012442 149.2509 210.9374 13.50971486 46069
QIANFAN-88              
1 63174U 25046R   25336.24865554  .00000109  00000+0  15034-3 0  9991
2 63174  88.9755 320.9350 0012599 157.0220 203.1497 13.50977459 46095
